IRIDIUM 71 [-]          
1 25320U 98026B   18077.26428165  .00000144  00000-0  40025-4 0  9998
2 25320  86.3963 126.2432 0003546 126.1392 234.0135 14.39138138 42882
IRIDIUM 70 [+]          
1 25342U 98032A   18077.46722925 -.00000041  00000-0 -21624-4 0  9994
2 25342  86.3933 109.6774 0002116  93.6512 266.4925 14.34220262 38416
IRIDIUM 72 [+]          
1 25343U 98032B   18077.45454311 -.00000032  00000-0 -18445-4 0  9992
2 25343  86.3926 109.2761 0002173  91.7863 268.3582 14.34220281 38413
IRIDIUM 73 [-]          
1 25344U 98032C   18077.14939755  .00000125  00000-0  27458-4 0  9994
2 25344  86.4378  87.1906 0001844 102.8383 257.3028 14.49101137 47222
IRIDIUM 75 [+]          
1 25346U 98032E   18077.46088628 -.00000035  00000-0 -19653-4 0  9995
2 25346  86.3930 109.5358 0002167  90.8225 269.3219 14.34220272 38981
IRIDIUM 76 [+]          
1 25432U 98048B   18077.43278899  .00000130  00000-0  35997-4 0  9999
2 25432  86.4270 140.8911 0002039 105.6023 254.5401 14.38601122 24904
IRIDIUM 82 [-]          
1 25467U 98051A   18077.50313729  .00001314  00000-0  96321-4 0  9994
2 25467  86.3974 255.3238 0183547 132.7724 228.9111 14.89784204 27678
IRIDIUM 81 [+]          
1 25468U 98051B   18077.43306546 -.00000081  00000-0 -33130-4 0  9997
2 25468  86.4191 267.1739 0001854  82.1359 278.0049 14.38607144 22278
IRIDIUM 80 [+]          
1 25469U 98051C   18077.43936066 -.00000053  00000-0 -26085-4 0  9994
2 25469  86.3919 267.4209 0002620  89.1056 333.3416 14.34215626 22149
IRIDIUM 2 [-]           
1 25527U 98066A   18077.48362446  .00001761  00000-0  86580-4 0  9996
2 25527  85.5298 230.2279 0009952 149.5786 210.6034 15.17248986 59450
IRIDIUM 86 [+]          
1 25528U 98066B   18077.44295696 -.00000068  00000-0 -31179-4 0  9990
2 25528  86.3947 235.0921 0002491 111.4680 248.6781 14.34211450 18673
IRIDIUM 84 [+]          
1 25530U 98066D   18077.47466611 -.00000060  00000-0 -28525-4 0  9996
2 25530  86.3948 235.2482 0001946  89.9734 270.1685 14.34212708 16313
IRIDIUM 83 [+]          
1 25531U 98066E   18077.43665043 -.00000055  00000-0 -26652-4 0  9996
2 25531  86.3952 235.4008 0002007  88.4761 271.6665 14.34211761 13665
IRIDIUM 20 [+]          
1 25577U 98074A   18077.28680484  .00000157  00000-0  49063-4 0  9996
2 25577  86.3973 140.8653 0002285  97.8988 262.2468 14.34218674  7723
IRIDIUM 11 [+]          
1 25578U 98074B   18077.32207458  .00000152  00000-0  47318-4 0  9994
2 25578  86.3980 141.0664 0001703  86.0268 324.3340 14.34219568 16690
IRIDIUM 14 [+]          
1 25777U 99032A   18077.20083736 -.00000031  00000-0 -18061-4 0  9999
2 25777  86.3928 109.4717 0002156  93.6517 266.4926 14.34220498993957
IRIDIUM 21 [+]          
1 25778U 99032B   18077.44819970 -.00000035  00000-0 -19510-4 0  9997
2 25778  86.3928 109.3834 0002075  87.7383 272.4051 14.34220372987424
IRIDIUM 91 [+]          
1 27372U 02005A   18077.41712477  .00000190  00000-0  60732-4 0  9996
2 27372  86.4022 172.5822 0001948 108.1379 252.0029 14.34218227850932
IRIDIUM 90 [B]          
1 27373U 02005B   18077.48947779  .00072255  55607-7  44914-3 0  9993
2 27373  86.4354 234.8256 0346432 324.4591  33.4007 15.25063219850974
IRIDIUM 94 [P]          
1 27374U 02005C   18077.49653305  .00707884 -92590-6  18104-2 0  9990
2 27374  86.3830 140.5006 0377460 314.0782  42.9951 15.32025489855345
IRIDIUM 95 [+]          
1 27375U 02005D   18077.38544977  .00000185  00000-0  58947-4 0  9992
2 27375  86.4018 172.6073 0001361  94.8515 265.2836 14.34221557850214
IRIDIUM 96 [P]          
1 27376U 02005E   18077.39320483  .00057707 -42559-6  64507-3 0  9990
2 27376  86.3865 199.2154 0310599 196.6649 162.4214 15.21240477856149
IRIDIUM 97 [+]          
1 27450U 02031A   18077.45802424  .00000146  00000-0  41118-4 0  9996
2 27450  86.4274 204.2569 0002073  92.5760 267.5675 14.38600716829542
IRIDIUM 98 [+]          
1 27451U 02031B   18077.43363064 -.00000060  00000-0 -28509-4 0  9993
2 27451  86.3912 267.5011 0002185  97.8651 262.2793 14.34215377830610
